#aV2007  3  2  0  0   .00000000      96 DD+AD WGS84 FIT  NGA
## 1416 432000.00000000   900.00000000 54161  .0000000000000
+   30     1  2  3  4  5  6  7  8  9 10 11 12 13 14 16 17 18
+         19 20 21 22 23 24 25 26 27 28 29 30 31  0  0  0  0
+          0  0  0  0  0  0  0  0  0  0  0  0  0  0  0  0  0
+          0  0  0  0  0  0  0  0  0  0  0  0  0  0  0  0  0
+          0  0  0  0  0  0  0  0  0  0  0  0  0  0  0  0  0
++         0  0  0  0  0  0  0  0  0  0  0  0  0  0  0  0  0
++         0  0  0  0  0  0  0  0  0  0  0  0  0  0  0  0  0
++         0  0  0  0  0  0  0  0  0  0  0  0  0  0  0  0  0
++         0  0  0  0  0  0  0  0  0  0  0  0  0  0  0  0  0
++         0  0  0  0  0  0  0  0  0  0  0  0  0  0  0  0  0
%c cc cc ccc ccc cccc cccc cccc cccc ccccc ccccc ccccc ccccc
%c cc cc ccc ccc cccc cccc cccc cccc ccccc ccccc ccccc ccccc
%f  0.0000000  0.000000000  0.00000000000  0.000000000000000
%f  0.0000000  0.000000000  0.00000000000  0.000000000000000
%i    0    0    0    0      0      0      0      0         0
%i    0    0    0    0      0      0      0      0         0
/*      NGA, ST. LOUIS,MO.                                  
/*   EPHEMERIS COMPUTED FROM  3 DAYS OF DATA                
/* CCCCCCCCCCCCCCCCCCCCCCCCCCCCCCCCCCCCCCCCCCCCCCCCCCCCCCCCC
/* CCCCCCCCCCCCCCCCCCCCCCCCCCCCCCCCCCCCCCCCCCCCCCCCCCCCCCCCC
*  2007  3  2  3 30   .00000000                                                 
P  1   1236.275958 -15402.393869  21802.190038    111.016755                    
V  1  25978.370478  -7789.854584  -7100.672906       .025216                    
P  2  10204.854513  20697.141930  13146.894786     86.742296                    
V  2 -14683.859984  -8922.182627  24742.818012       .032804                    
P  3  -4112.360153 -15705.236466 -21197.191064     21.542042                    
V  3  24235.815151 -11024.697766   3831.107829       .057533                    
P  4  -4345.341480  15916.315434  20679.652150      6.227586                    
V  4 -20831.049022 -16475.838836   8636.416686       .016317                    
P  5  14516.059347   7639.722505  20686.395072     41.353548                    
V  5  -3095.965860  26675.148702  -7443.944832       .028208                    
P  6  25262.006869  -4802.209087   6937.682879     61.611789                    
V  6  -6659.811863   6403.956460  29431.254268       .240563                    
P  7  25108.101535  -8189.386757   3550.590958    398.846692                    
V  7  -2358.630483   4833.584925  30698.883401      -.130780                    
P  8 -13331.261559   7763.815363 -21786.427701    -98.467521                    
V  8 -20026.511206 -18526.756884   5259.717109      -.013967                    
P  9  21475.825044  15774.849149    873.346283     59.785233                    
V  9   -118.191356   3105.990948 -31658.430064       .016598                    
P 10   2672.656967  24060.082717 -10645.338111     98.199300                    
V 10  -4982.787198  12730.035835  28121.514731       .005273                    
P 11 -23805.424963 -11895.986805   2242.870094      8.869518                    
V 11   -231.121433  -5486.321438 -29852.887676       .012877                    
P 12  13094.361322  10060.501529  20921.580414    -47.064463                    
V 12  -5173.096017  25801.162615  -9171.598556       .022877                    
P 13 -25570.421083   6265.647428   3216.912514    148.820164                    
V 13   3419.846769  -3011.892182  32166.341995       .039142                    
P 14  17204.074178 -15265.719170  13308.500431     10.082388                    
V 14  16329.783732  -4004.166534 -25927.779566       .014486                    
P 16   1760.069916 -26049.621570  -4374.584389    127.030363                    
V 16   3795.573956  -5070.586795  31255.612299       .035243                    
P 17 -17768.068661  15477.115204  12134.960153     76.906919                    
V 17 -15364.753818   2963.826107 -26398.771567      -.013882                    
P 18  15531.425938 -11332.224278 -18052.646304   -253.384452                    
V 18  -3101.120052  23197.510988 -17422.437056       .003047                    
P 19 -13626.909179 -10674.711536 -20076.281729     10.252591                    
V 19  24314.498814  -8351.687317 -11906.200879       .040043                    
P 20 -13845.139797  -8072.940096  21086.249300    -22.625130                    
V 20   4941.791889 -26575.825492  -6853.090773      -.002115                    
P 21  18877.127073  -1512.714131 -18733.891851     72.509308                    
V 21  16885.637387  16946.861111  15002.291311       .008830                    
P 22  11776.527137 -21768.104274  -9458.726507    170.066021                    
V 22     91.082375  12573.891510 -28381.132590       .020241                    
P 23 -22998.685778  -1246.538255  13315.757284    152.341315                    
V 23  15249.939311  -7629.308844  25284.073053       .018235                    
P 24  21913.366910  10850.925940  -9795.624852     81.644088                    
V 24   7445.231399  10855.909569  28381.781588       .030648                    
P 25 -13827.878599 -19520.777758  11800.036786    321.256026                    
V 25  13291.783323   6118.257377  26748.150318      -.198045                    
P 26  12076.447286  10839.513034 -21565.714813    -68.061840                    
V 26 -24804.067577   8420.315232  -9291.525423      -.189519                    
P 27 -19798.188823    322.090082 -17184.890418     96.925367                    
V 27 -17528.665834 -14976.932010  18952.692174       .020531                    
P 28 -12867.802390  18891.291407 -12898.891087      6.285585                    
V 28    739.236332 -17220.517657 -25671.666415      -.008124                    
P 29   7406.355687  12657.843986 -21944.651750    360.389599                    
V 29 -26515.534832   9879.735656  -2873.785731       .072753                    
P 30  15639.484485  -3043.750566  20932.038782     26.839809                    
V 30  -2942.316732  27208.116918   6179.137457       .011418                    
P 31   1569.853224 -17175.958697  20384.033885     12.560791                    
V 31  20272.925357  15419.704831  11605.465687       .028656                    
EOF
